{"fetched_at":"2026-03-29T16:36:15Z","count":15609,"tles":[{"name":"STARLINK-35534","line1":"1 66202U 25243AB  26087.88853211  .00025985  00000+0  88623-3 0  9999","line2":"2 66202  53.1591 156.0392 0001198  83.0829 277.0308 15.30206532 23590","category":"Starlink"}]}